0 DMSP 5D-2 F10 DEB
1 37885U 90105AF  13282.29192108  .00011683  00000-0  30549-2 0  2315
2 37885 098.3161 228.5762 0065990 337.9187 021.9166 14.48209776190373
0 DMSP 5D-2 F10 DEB
1 37885U 90105AF  13282.63737317  .00009166  00000-0  24003-2 0  2322
2 37885 098.3159 228.9161 0065937 336.8895 022.9336 14.48212376190428
0 DMSP 5D-2 F10 DEB
1 37885U 90105AF  13283.60464718  .00013774  00000-0  35968-2 0  2335
2 37885 098.3150 229.8576 0065163 334.1049 025.7377 14.48219573190569
0 DMSP 5D-2 F10 DEB
1 37885U 90105AF  13288.30260326  .00013399  00000-0  34952-2 0  2353
2 37885 098.3166 234.4934 0065220 319.5637 040.0718 14.48317761191243
0 DMSP 5D-2 F10 DEB
1 37885U 90105AF  13290.30605359  .00012947  00000-0  33755-2 0  2364
2 37885 098.3169 236.4656 0064945 313.4189 046.1609 14.48362071191539
0 DMSP 5D-2 F10 DEB
1 37885U 90105AF  13292.37852550  .00010704  00000-0  27918-2 0  2374
2 37885 098.3178 238.5060 0064629 307.1229 052.4070 14.48409336191836
0 DMSP 5D-2 F10 DEB
1 37885U 90105AF  13294.79632595  .00014572  00000-0  37906-2 0  2383
2 37885 098.3181 240.8872 0064443 299.4663 060.0111 14.48459931192182
